{"type": "FeatureCollection", "features": [{"type": "Feature", "properties": {"type": "district", "name": "Shivamogga District"}, "geometry": {"type": "Polygon", "coordinates": [[[75.07272752189925, 14.655234613099916], [75.05088600265881, 14.649534517219202], [75.04899025018547, 14.64208213016385], [75.0401317053523, 14.637541897133628], [75.02353032955698, 14.606638974078034], [75.02678876163762, 14.584452293827038], [75.02366772508307, 14.580614301581182], [75.02442090675326, 14.57737454162071], [75.02083565679247, 14.574209618034786], [75.02302646002256, 14.56265555570276], [75.03356475921562, 14.558800902182819], [75.03971598570006, 14.549223042502621], [75.044579312833, 14.545817562745702], [75.05478019312726, 14.548898423523786], [75.06133719671035, 14.543617716709793], [75.05465796475642, 14.539598310029707], [75.05238670571455, 14.533591859971988], [75.03690313237337, 14.52943786337069], [75.04063579677059, 14.521937812188682], [75.04067658118281, 14.500216937382723], [75.01860883291613, 14.4967732026487], [75.00649390595781, 14.487485232228371], [75.00881471786737, 14.484169437705198], [75.0055236625689, 14.480557054274515], [74.9956279318918, 14.477827892132927], [74.98955408448931, 14.472728434051227], [74.98453507123281, 14.48636695845744], [74.99114216128288, 14.493432240575041], [74.99064340046746, 14.501143189592742], [74.9822571332168, 14.513294536991632], [74.97182062572185, 14.520798449278423], [74.97257659755928, 14.523893850869163], [74.97971814118597, 14.524240314579309], [74.9768128278604, 14.533171331266352], [74.97684377302528, 14.548712797938418], [74.9701092704269, 14.55100735756368], [74.96263714677565, 14.549502720530619], [74.95428532811952, 14.551234562469217], [74.94866868636572, 14.536451169603293], [74.9433685444427, 14.5326979943182], [74.94106087668239, 14.534558339479412], [74.94179027725205, 14.531222407814255], [74.93576437113967, 14.518732506595008], [74.9296714632835, 14.52339339440651], [74.92684716182686, 14.529062457494934], [74.90096735965142, 14.529375426206956], [74.90211511822531, 14.51521011024659], [74.89819948407272, 14.508299806382102], [74.89467229941529, 14.507426492383642], [74.88928944780746, 14.47935800191198], [74.89345278251817, 14.474009663037528], [74.90305460060397, 14.473249227099059], [74.91833202406215, 14.466482694682949], [74.9209900761058, 14.459190466240685], [74.90881166879959, 14.457708977047504], [74.89894513336925, 14.464143951273739], [74.88985700879384, 14.461937379761553], [74.87461585571354, 14.447604298313138], [74.87806362750325, 14.435522827709493], [74.88042929049831, 14.434396944688347], [74.88081430753078, 14.429214063146214], [74.91717929331315, 14.431534219898897], [74.93361252065694, 14.403967920574232], [74.94704281295658, 14.400877051215431], [74.94896728187459, 14.398606674749884], [74.94984006075013, 14.376029603004472], [74.94073488704892, 14.367694830607364], [74.9392840377965, 14.35851786493215], [74.95031753508655, 14.350686830091478], [74.95512929353232, 14.349890002679027], [74.95913200228372, 14.342185870121785], [74.9744096422359, 14.337553072327447], [74.97414236020121, 14.333375671132849], [74.97632064271284, 14.331951056647286], [74.97378445791726, 14.331429882325537], [74.97297673233967, 14.326610004280827], [74.96966239270901, 14.325941816323535], [74.97242939512527, 14.320433202524397], [74.97316529500601, 14.323320575244887], [74.97696334058624, 14.320670149449064], [74.97141354247273, 14.315709305472625], [74.96777446905341, 14.3153180013799], [74.95784944611154, 14.323408775455402], [74.95181426579214, 14.316921249103778], [74.94897713908821, 14.319510750715745], [74.93925039229585, 14.319446486888227], [74.93699456361561, 14.322379347830566], [74.9310248156832, 14.318859307430015], [74.92520260884969, 14.319427325763478], [74.92037745203149, 14.315732690195906], [74.91795472086304, 14.308476007147233], [74.91343644561391, 14.303991233422783], [74.9133577424152, 14.299014778864924], [74.907022804167, 14.294849276725955], [74.9100318684163, 14.278205688352035], [74.91559195852803, 14.276198684432691], [74.9166439486078, 14.27315467143739], [74.92391232626774, 14.278339645781717], [74.92634678134898, 14.277464323590078], [74.92843077309512, 14.264743887082378], [74.9342375423805, 14.263327731895927], [74.93516985979642, 14.25844483510352], [74.93833590823493, 14.256328526977315], [74.9353643711066, 14.243158669839406], [74.9304308118881, 14.241085762493553], [74.92719796382676, 14.23686987566766], [74.92889147049533, 14.235341103615289], [74.9232452624906, 14.232501141907491], [74.919846360849, 14.227530723980982], [74.90060011309193, 14.2299391001222], [74.89685527292934, 14.227423015971251], [74.89621533917206, 14.220641540779301], [74.89283865376575, 14.21764736212217], [74.87767768790098, 14.215808806588536], [74.88004334550618, 14.2195323577458], [74.87955610288934, 14.221094391951057], [74.87612767003108, 14.219441853661014], [74.8753168794017, 14.227814211558488], [74.88027617804804, 14.234634011074279], [74.87324044069044, 14.241278008937314], [74.86842456885906, 14.238058618461183], [74.86633163079097, 14.219753390002257], [74.85926553935992, 14.218799804192885], [74.85673012531888, 14.212808339337695], [74.85342267486814, 14.211260265560313], [74.83231566311976, 14.230065122327131], [74.82227068364644, 14.227833513705583], [74.81827249521751, 14.232355531957163], [74.80934844164055, 14.230662069804247], [74.80337853740129, 14.232067561391956], [74.80086933709853, 14.229258096776885], [74.79180211811642, 14.22739660140433], [74.77298487339968, 14.23940372080969], [74.76372716486493, 14.237938959595121], [74.74493247953991, 14.2553831630939], [74.73003099743487, 14.263867364578003], [74.71596004913249, 14.23327543871106], [74.71875418965348, 14.2139790104288], [74.72877274877598, 14.174935431223274], [74.74845560471061, 14.156895553133111], [74.7479463713356, 14.142699544254555], [74.7430585426533, 14.149065764294201], [74.72341158249911, 14.152623379509675], [74.70751062941906, 14.170048101446026], [74.69751921828275, 14.17313110999214], [74.69057686888377, 14.166218444637032], [74.66553677949659, 14.184458440187257], [74.65060845932409, 14.170100837697555], [74.62525721508206, 14.16253026872583], [74.62903465330967, 14.144279289086986], [74.64492014099379, 14.14211666313277], [74.64303851632494, 14.136038481727034], [74.64633905423958, 14.114458226685416], [74.65570186925581, 14.113315127195602], [74.63739312219388, 14.09463278772249], [74.6536073124236, 14.074479350067003], [74.66087664499273, 14.058405573773788], [74.65395886811005, 14.043904033410323], [74.65525363777682, 14.039130961949654], [74.67754510877008, 14.034823695895088], [74.66966349348645, 14.006901418095557], [74.66322267081567, 13.993247679752889], [74.66581674933634, 13.980069317542752], [74.67479693773711, 13.969000258582733], [74.6832504914975, 13.965008054971527], [74.68461840918123, 13.957795091934308], [74.6987434171991, 13.950678208622092], [74.69960503271061, 13.939059069758995], [74.69053467770982, 13.933539058880996], [74.69676067007701, 13.92779799732437], [74.70777659182858, 13.926881794613834], [74.71381975278094, 13.916381619274558], [74.71177996443497, 13.905138498389215], [74.72287927409938, 13.907226872107328], [74.73400876086914, 13.914114136896501], [74.74184635061901, 13.914860819743968], [74.75501130483822, 13.9090937567213], [74.76267380305772, 13.916011927098562], [74.76343333851192, 13.914380849853286], [74.78788461816298, 13.913265899773712], [74.79150068393128, 13.905534830627706], [74.79463095786187, 13.91044380755358], [74.80069161260607, 13.910161110314066], [74.80870114708783, 13.905775375534272], [74.81622815420968, 13.905655401332206], [74.81966032944942, 13.907843562402912], [74.8310744438237, 13.902933660060839], [74.83725609624678, 13.896955849850364], [74.83988828220012, 13.89743080165951], [74.85618775938127, 13.87844303051287], [74.85773813567899, 13.868993439178588], [74.86513959605333, 13.85723489210734], [74.87086575501665, 13.857162836004068], [74.87633289195436, 13.860570462460899], [74.87872891890436, 13.867493956519722], [74.90695296913681, 13.860288661142306], [74.91065737073855, 13.856650215452479], [74.91647027911056, 13.82320693277174], [74.92366875077343, 13.812721041771905], [74.92440530103443, 13.796325017235214], [74.93145143279817, 13.791908286125073], [74.93342948891781, 13.787659742479192], [74.92939162729272, 13.782576427523992], [74.9314990650678, 13.778147098787121], [74.92801532293748, 13.768847152735278], [74.93534906561078, 13.771778588134346], [74.93777443063962, 13.763937075691022], [74.94674286817816, 13.760152130672045], [74.9481196737933, 13.756965656473717], [74.96321288243112, 13.751442911662693], [74.97162038765177, 13.751183345805636], [74.97608653007171, 13.746529554991474], [74.98691247341202, 13.743366055823415], [74.98985575313479, 13.739930116123833], [74.99857854905379, 13.738393953731055], [74.99347551367381, 13.721232166351989], [74.98869521422935, 13.72024010156485], [74.99115413852059, 13.710093149452188], [75.00079678503602, 13.710664179881821], [75.01125889182163, 13.7075555829807], [75.01298566130856, 13.70208805231838], [75.02133524405795, 13.698146474916541], [75.02077781516965, 13.693983958898343], [75.01100344059925, 13.691091668564148], [75.01313048769865, 13.689212643499431], [75.01208265592034, 13.676793111298503], [75.02846497933022, 13.670206613516495], [75.02903476005372, 13.666989099076801], [75.02435122892824, 13.660538123128754], [75.01574463368448, 13.663611992615259], [75.01275265629016, 13.657821375245543], [75.01498183824413, 13.654279266924581], [75.01341628221472, 13.652009849407428], [75.01498648702572, 13.644363894570116], [75.01782101490355, 13.640505681665719], [75.01545309983204, 13.634724403979673], [75.0233812900682, 13.627248416906193], [75.0282239397799, 13.627173594999693], [75.03944940974117, 13.610393100070741], [75.05000336567133, 13.608046613483632], [75.05198937367787, 13.610605218716701], [75.0557966871769, 13.610515924466137], [75.06129720551054, 13.602658368228255], [75.05901380394097, 13.589610401933163], [75.05093525728583, 13.5833668059231], [75.04518734202462, 13.585353453844139], [75.03782040480493, 13.580013524523041], [75.03365563278977, 13.573892775963046], [75.03501642144339, 13.567168518580694], [75.04219272807497, 13.561535486643793], [75.0425734313974, 13.556107879459], [75.04547415612853, 13.55694946394155], [75.04958176924049, 13.554094570423985], [75.04904207848578, 13.537377304992658], [75.06267989778574, 13.528731228295436], [75.05957855948871, 13.519497328422315], [75.06170359705685, 13.517938726435611], [75.06419151627053, 13.523945611926138], [75.0682885094992, 13.52350374703312], [75.07686293068274, 13.51432231837799], [75.07958518801469, 13.504669494511358], [75.07752698151046, 13.49668311786179], [75.07989697348688, 13.492512208271942], [75.08763216876905, 13.494475007991905], [75.09681423556363, 13.486495127524908], [75.10230028832625, 13.488994984703321], [75.11313107268762, 13.46661139577536], [75.11124741423298, 13.460704430898495], [75.11580053962358, 13.456854189101728], [75.12669330414629, 13.462187398626524], [75.14075856701123, 13.461378142303467], [75.13627996944987, 13.472500553351162], [75.14666128355546, 13.478085971746271], [75.15161737611453, 13.487499419050149], [75.15960747734175, 13.493369264748024], [75.16975642782606, 13.507992769134262], [75.17618538824351, 13.49913757577478], [75.18143142194198, 13.505536548795531], [75.1884246141894, 13.50880705158795], [75.20273751832367, 13.509033632897856], [75.20576938450984, 13.51538248195792], [75.2110906467235, 13.517039435190126], [75.20878668810695, 13.519213939934343], [75.20412143590092, 13.518212129663825], [75.20881625076464, 13.5247094566907], [75.21971631409907, 13.523643738679157], [75.22605974861327, 13.527997972144531], [75.22076863835211, 13.533287662048137], [75.22439616662344, 13.548606917844069], [75.2204747841513, 13.549530367074897], [75.2183276992312, 13.552030281812929], [75.21982099657573, 13.555252062574386], [75.21596021804596, 13.557901809987628], [75.22205856340456, 13.559639553499393], [75.22647385938279, 13.568373688146032], [75.21875730773601, 13.575901283866141], [75.21176374448443, 13.578190585452067], [75.21068982652857, 13.585358619585191], [75.22379189149137, 13.596073809457222], [75.22129941871754, 13.602099001271267], [75.22574114852132, 13.605983973928971], [75.2354960673793, 13.598491447571515], [75.24479068409579, 13.60515783583354], [75.24917798767147, 13.596039007765023], [75.25496561565477, 13.594818440259681], [75.25649588406318, 13.583760362225055], [75.26456554638015, 13.586670109929685], [75.27147102981814, 13.569043260049863], [75.27888747049818, 13.564526992344298], [75.2798005073732, 13.568581208352077], [75.28340375957225, 13.568953200025126], [75.28966131245035, 13.574631801393307], [75.29499840567422, 13.584761547889338], [75.3079946293336, 13.584042406780716], [75.31329239431436, 13.589042296065124], [75.32620477371674, 13.592588499991553], [75.32820667920888, 13.585900291791532], [75.34081006689956, 13.585794091325994], [75.34432658675796, 13.580656129771624], [75.35738131320024, 13.595652726799596], [75.36450554718971, 13.598152431619681], [75.36976341080215, 13.597122288148471], [75.36395540453668, 13.604244431715154], [75.36641786190194, 13.609410204014951], [75.36603845664503, 13.621987501078069], [75.37273382773134, 13.62679181031816], [75.3791289396289, 13.620717905886949], [75.37826018700245, 13.615059691675503], [75.38611514837328, 13.613288034503247], [75.38879960549637, 13.613319535170206], [75.38731194777517, 13.616858260912807], [75.38899405122952, 13.61979572215977], [75.38668388615271, 13.623510708776143], [75.39212255817397, 13.623957930421785], [75.39434098998893, 13.630565008733116], [75.4073111625051, 13.62565583767551], [75.40541716084824, 13.630066975196065], [75.41196645598791, 13.639692294480822], [75.40911096322795, 13.642205412351352], [75.41470419758039, 13.652910999765885], [75.40340828083626, 13.680981806474193], [75.39429032680353, 13.693555287492691], [75.39422151495447, 13.700307136158825], [75.38787970908588, 13.698562989966627], [75.3857536752861, 13.702241726902738], [75.38227771436279, 13.702671148740537], [75.38296201411531, 13.710909848071275], [75.4025465503404, 13.703804366750184], [75.41921035365804, 13.706129640987692], [75.42661735484107, 13.71516239929409], [75.45436925954336, 13.723692441034508], [75.45980801690457, 13.730722707629058], [75.46120344549387, 13.74177192893803], [75.48864524457355, 13.75977575341128], [75.48562864435729, 13.76513692037212], [75.4867906789577, 13.768372194912134], [75.49832583233332, 13.758117166721387], [75.5069312166481, 13.765726660361702], [75.50700770729625, 13.760769065197563], [75.51071850490278, 13.75501783284701], [75.52098832191197, 13.751818371297544], [75.521666938922, 13.743660691216354], [75.52775723357901, 13.739623010804824], [75.53287839336815, 13.730789860132873], [75.5409462482748, 13.728049642236869], [75.56583666036934, 13.740882976098147], [75.56730372421268, 13.753140330060441], [75.5714317766923, 13.755423570384917], [75.59906936089317, 13.760960036040965], [75.61087299196119, 13.760988285088914], [75.60902468850118, 13.746006033459022], [75.6279101225345, 13.733262428582615], [75.61731485937264, 13.72299434376807], [75.62215958509097, 13.713842966661366], [75.6225525998244, 13.705789522954348], [75.62691610702821, 13.702309754194138], [75.6315338194911, 13.703362782664724], [75.63490338844376, 13.701288364399474], [75.64796198303166, 13.709106050517553], [75.65117557929814, 13.718740921240315], [75.67092356758243, 13.719908845126257], [75.6747009096903, 13.723211754180312], [75.6746141593833, 13.728381839244424], [75.6681519002149, 13.730877628800704], [75.66581853434924, 13.737548462772343], [75.65588021903615, 13.746177064676091], [75.66313002133262, 13.750785827494335], [75.66417143374996, 13.757999095293092], [75.66919811322907, 13.764108452411302], [75.6743944898553, 13.761960857000394], [75.67649587208706, 13.7511937537848], [75.6865187592926, 13.749922820755742], [75.68865568875846, 13.753954170335122], [75.68198148467519, 13.761344683845444], [75.68717954833748, 13.766771213761023], [75.70964531495373, 13.766538909025932], [75.71288324658126, 13.77057796960259], [75.71811295250114, 13.771407745476013], [75.73177005952856, 13.76909305832866], [75.74911229659992, 13.78098543732161], [75.76458199096994, 13.781538010058041], [75.76688305701126, 13.79002484616791], [75.76070808805386, 13.794259341158307], [75.767074834748, 13.797110069012138], [75.77262062278207, 13.796974695862147], [75.77760696790496, 13.788533402741804], [75.79179574552822, 13.796959276260923], [75.80777570184426, 13.794484106919132], [75.82546492307559, 13.818694569632058], [75.83554183316568, 13.813822118848885], [75.87877688989924, 13.810157101364345], [75.87055122704837, 13.835568673491357], [75.8713735062319, 13.851139540238869], [75.86573798278914, 13.859860546767866], [75.86288134916877, 13.872698247532936], [75.8553357900397, 13.872697691997498], [75.85977752703005, 13.886638309830543], [75.85967005887764, 13.910407830936354], [75.82916484657562, 13.971698873235415], [75.83087860755892, 13.986753165711319], [75.82388349201848, 14.018982648781618], [75.80793597566398, 14.026254402741008], [75.80343229534326, 14.026117476337955], [75.79878266663661, 14.033306019400785], [75.80101500167724, 14.043736989253246], [75.81394256350619, 14.048820338277352], [75.8209795953361, 14.065050453084323], [75.8210687082123, 14.079511796940304], [75.81397191775474, 14.094626589498022], [75.81414014795294, 14.10567599285056], [75.80587269637334, 14.098178525271555], [75.76854191565931, 14.103627822319567], [75.76818368818525, 14.109443673292905], [75.75599703344642, 14.110326783663844], [75.75314902455113, 14.101787981041626], [75.73881539718157, 14.101121953217802], [75.73822072324327, 14.087438308846641], [75.72116244453153, 14.083427878616517], [75.72550663526178, 14.075820430374531], [75.70197291729978, 14.07293198195934], [75.67301753242486, 14.064989844820763], [75.64364883538268, 14.074004724442162], [75.64243631187006, 14.079509108890164], [75.63431566566912, 14.079884500668747], [75.63073669313553, 14.073539699257594], [75.61756061867143, 14.076630532332576], [75.61113100338214, 14.061436648803138], [75.60360865671998, 14.056582420118538], [75.60091854110892, 14.060884363957335], [75.59132598645033, 14.063960666057742], [75.58524858621092, 14.057903972489536], [75.56434873225523, 14.06931021420262], [75.55367919369074, 14.07880188658933], [75.54325795036907, 14.078097930474792], [75.53970591471762, 14.080731356366856], [75.53879635881434, 14.086158473600623], [75.53395184330176, 14.090214936565935], [75.53130975971061, 14.097548338398397], [75.5290607438535, 14.094641694729342], [75.52363440749771, 14.094494767843454], [75.51003717138735, 14.101099960339576], [75.49280554208032, 14.09953828892952], [75.49053939894398, 14.10479059054674], [75.47990156551913, 14.100276215179928], [75.47077208340633, 14.103239920270402], [75.4647940997194, 14.102383436349617], [75.44850273791856, 14.095420223985826], [75.43292987203813, 14.106500648974947], [75.39882408721155, 14.116899946625578], [75.40138107788742, 14.126240866013175], [75.41543788401228, 14.141238196165387], [75.42061070142184, 14.14105655575575], [75.42430340965353, 14.149538291159734], [75.43345083112253, 14.15293927671158], [75.44376312586823, 14.163488879312556], [75.46117235210696, 14.174699967754906], [75.4842296243035, 14.176268175384102], [75.46174215259335, 14.199708618557363], [75.45295197763812, 14.2047277084055], [75.46173647703738, 14.209252973667747], [75.47256762521646, 14.21068151676495], [75.47625226567858, 14.21495964302673], [75.50690111769619, 14.219183160144395], [75.52088994201533, 14.20254149490042], [75.52679131378156, 14.20284690191208], [75.52893087710781, 14.215017665090214], [75.52670604749143, 14.22846110034729], [75.52921633924723, 14.230021245138516], [75.52701265327767, 14.258356909787175], [75.5299189152242, 14.27743779126181], [75.53567874214608, 14.277485219853126], [75.5341307257226, 14.289559631657651], [75.52443067236894, 14.29197320901775], [75.51764647766394, 14.301428636875489], [75.50272517602878, 14.307865378644175], [75.50497228566087, 14.317605223624934], [75.5016269352883, 14.32457631479385], [75.50100422133671, 14.34436946394027], [75.48980384132133, 14.347373696686539], [75.48868717074448, 14.338729290087882], [75.4811834281919, 14.339613815779677], [75.48055067826195, 14.344372698010543], [75.47658269927776, 14.343859146907011], [75.48007638935148, 14.331041632761984], [75.47736349965135, 14.317472053813322], [75.45432872396445, 14.328610952006425], [75.44185495688104, 14.339794796938303], [75.43360537728401, 14.343131949958378], [75.42930081393592, 14.349102533283586], [75.41026433178081, 14.35247249725801], [75.40158316379203, 14.359292813974065], [75.3974257579622, 14.3661621401703], [75.37369609857213, 14.370279706870866], [75.36182339604194, 14.381405020274883], [75.34861016276611, 14.38800155107493], [75.35940599906968, 14.40929644523521], [75.36515985578815, 14.410914715426294], [75.37794268555014, 14.407828558009115], [75.38208836028066, 14.433568889409157], [75.36462042554486, 14.441684654530695], [75.35765580241846, 14.43648728923755], [75.35856054335179, 14.431367397874684], [75.35611709793123, 14.428348470602211], [75.35536553772013, 14.431647228969394], [75.3401649265069, 14.435789188443268], [75.34245787177807, 14.45173268444829], [75.34723823051135, 14.457458936943741], [75.33995093253488, 14.4687780327222], [75.34612151501875, 14.485314038000348], [75.32946892896406, 14.494538967051819], [75.32423360587867, 14.508892768681731], [75.31960321010229, 14.513478333881856], [75.29740343464167, 14.511045069007997], [75.28685037612848, 14.511624133806835], [75.28604205586616, 14.514579239673118], [75.28315678395457, 14.51452385809154], [75.27504995204605, 14.510905209622551], [75.26751036491699, 14.514919159991072], [75.26780562677783, 14.527789393201859], [75.27829609876686, 14.534165898776758], [75.28456541867685, 14.529608823071422], [75.28724565820968, 14.53241173668228], [75.29012680056593, 14.531603862282408], [75.29722598144046, 14.540504363974541], [75.2931377243279, 14.543526070801015], [75.29383197022726, 14.548045366054557], [75.2916049568064, 14.548288510424229], [75.28562450095578, 14.56053267810646], [75.28180144987131, 14.560354858794607], [75.27438028944279, 14.565480704931497], [75.2744570953996, 14.569999717461313], [75.26774551780724, 14.574926839940074], [75.26547416623887, 14.579783652677673], [75.24916920933454, 14.580737743713321], [75.24355863659879, 14.577988498697506], [75.24467659446147, 14.568742144254626], [75.24211042210509, 14.568092602444215], [75.24350283954155, 14.56018381160305], [75.24046576402505, 14.554929693252639], [75.22846156969685, 14.561175834256249], [75.22515640545849, 14.567711615308689], [75.23059065058203, 14.579734374903355], [75.22740944037817, 14.58381183197134], [75.2215911672673, 14.584907798558655], [75.21919490675532, 14.580240633719328], [75.20755463522009, 14.572115226014338], [75.19736255392402, 14.57740113387396], [75.19776331752507, 14.582737921219145], [75.18413153220892, 14.585873212592944], [75.18173553669996, 14.597763168937826], [75.18742052407718, 14.599492577460728], [75.19867254464498, 14.596299080743156], [75.20514173880736, 14.597490027697994], [75.20573994851462, 14.609505836852582], [75.21059933923, 14.623323153668197], [75.2098075066464, 14.627842310784704], [75.20740324843345, 14.62721951750836], [75.20816203738764, 14.63347348426488], [75.20520578239889, 14.634138750184144], [75.20752239737948, 14.635823540574583], [75.20553203883199, 14.637681531889868], [75.20075157050422, 14.637981286313149], [75.20243286188158, 14.627772457692352], [75.19653281692702, 14.623625880423669], [75.18781211408259, 14.622566298446598], [75.1819604326263, 14.624668960545087], [75.17195650346649, 14.634368827074264], [75.16541222990931, 14.633348621953715], [75.16354115775009, 14.628933843192206], [75.16479275887588, 14.620831199841028], [75.16023023531078, 14.617320597510268], [75.15279208324863, 14.626187723953828], [75.14410359758358, 14.620386132437183], [75.1425266877473, 14.633807531623043], [75.12422656810533, 14.63119144169398], [75.11455860347192, 14.64159366346622], [75.10301980293622, 14.6451536273881], [75.09942181486471, 14.652745071093877], [75.07272752189925, 14.655234613099916]]]}}, {"type": "Feature", "properties": {"type": "taluk", "name": "Sagar Taluk"}, "geometry": {"type": "Polygon", "coordinates": [[[74.97940861497675, 14.34277513296981], [74.97301320483854, 14.342304647614798], [74.9753655197668, 14.340804067135247], [74.97337487286012, 14.336991135685626], [74.97631601818578, 14.331763613707794], [74.97378445791726, 14.331429882325537], [74.97297673233967, 14.32661000341045], [74.96966239270901, 14.325941816323535], [74.97242939422695, 14.320433203394774], [74.97316529500601, 14.323320575244887], [74.97688111778828, 14.32102727839777], [74.97605597657225, 14.318309480984247], [74.9681817220841, 14.31513035827533], [74.95784944700986, 14.323408775455402], [74.95181426579214, 14.316921249103778], [74.94897713908821, 14.319510750715745], [74.93925039139751, 14.319446486888227], [74.93699456451392, 14.322379347830566], [74.9310248156832, 14.318859308300432], [74.92550471497468, 14.319570112399445], [74.92006148041008, 14.315246298591408], [74.91795472086304, 14.308476007147233], [74.91343644561391, 14.303991233422783], [74.9133577424152, 14.299014778864924], [74.907022804167, 14.294849275855464], [74.91003186751801, 14.278205688352035], [74.91559195852803, 14.276198684432691], [74.9166439486078, 14.27315467143739], [74.92391232626774, 14.278339646652274], [74.92634678224726, 14.277464323590078], [74.92843077219683, 14.264743887082378], [74.93423754148218, 14.26332773102532], [74.93516985979642, 14.25844483510352], [74.93833590733661, 14.256328526977315], [74.9353643711066, 14.243158669839406], [74.93043081098979, 14.241085762493553], [74.92719796382676, 14.236869876538407], [74.92889147049533, 14.235341103615289], [74.92324526338892, 14.23250114103677], [74.919846360849, 14.227530723980982], [74.90153322551687, 14.230270898304125], [74.89685527292934, 14.227423015971251], [74.89621533827378, 14.220641539908529], [74.89283865376575, 14.217647361251347], [74.87767768790098, 14.215808807459345], [74.88004334550618, 14.2195323577458], [74.87955610378764, 14.221094391951057], [74.87612767003108, 14.219441853661014], [74.8753168794017, 14.22781421242926], [74.88027617804804, 14.234634011074279], [74.87324044069044, 14.241278008937314], [74.86842456885906, 14.238058618461183], [74.86633163079097, 14.21975338913146], [74.85926553935992, 14.21879980506367], [74.85673012531888, 14.212808339337695], [74.85342267486814, 14.211260265560313], [74.83231566311976, 14.230065122327131], [74.82227068364644, 14.227833513705583], [74.81827249521751, 14.232355531957163], [74.80934844253886, 14.230662069804247], [74.80337853740129, 14.232067561391956], [74.80086933709853, 14.229258096776885], [74.79180211811642, 14.22739660140433], [74.77298487250138, 14.23940372080969], [74.76372716486493, 14.237938959595121], [74.74493247953991, 14.2553831630939], [74.73003099653654, 14.263867364578003], [74.71596004913249, 14.23327543871106], [74.71875418965348, 14.2139790104288], [74.72877274787767, 14.174935432094225], [74.74845560471061, 14.156895552262059], [74.74794637223393, 14.142699545125657], [74.7430585426533, 14.149065764294201], [74.72341158249911, 14.152623380380701], [74.70751062941906, 14.170048102317015], [74.69751921828275, 14.173131110863103], [74.69057686888377, 14.166218444637032], [74.6655367785983, 14.184458441058194], [74.65060846022243, 14.170100837697555], [74.62525721508206, 14.16253026872583], [74.62903465241133, 14.144279289086986], [74.6449201400955, 14.142116664003872], [74.64303851632494, 14.136038481727034], [74.64633905423958, 14.114458227556621], [74.65570186925581, 14.113315127195602], [74.63739312219388, 14.09463278772249], [74.6536073124236, 14.074479350067003], [74.66087664499273, 14.058405572902405], [74.65395886811005, 14.043904033410323], [74.65525363777682, 14.039130961949654], [74.67754510877008, 14.034823695895088], [74.66966349258813, 14.006901418095557], [74.6631533595033, 13.993934606398478], [74.66529863341984, 13.981226311319533], [74.67479693773711, 13.969000258582733], [74.6832504914975, 13.96500805409975], [74.68461840918123, 13.957795091934308], [74.6987434171991, 13.95067820775025], [74.69960503271061, 13.939059069758995], [74.69053467860816, 13.93353905800909], [74.69676067007701, 13.92779799732437], [74.70777659182858, 13.926881794613834], [74.71381975278094, 13.916381619274558], [74.71177996443497, 13.905138498389215], [74.72287927409938, 13.907226872107328], [74.73400876086914, 13.91411413602457], [74.74184635061901, 13.914860819743968], [74.75501130483822, 13.9090937567213], [74.76267380305772, 13.916011927098562], [74.76343333941026, 13.914380849853286], [74.78788461816298, 13.913265900645655], [74.79150068303292, 13.905534831499674], [74.79463095786187, 13.910443806681586], [74.80069161260607, 13.910161110314066], [74.80870114798617, 13.905775375534272], [74.81622815420968, 13.905655401332206], [74.81966032944942, 13.907843562402912], [74.83107444472199, 13.902933660060839], [74.83725609534845, 13.896955849850364], [74.83949962070257, 13.89785102816791], [74.85618775848295, 13.87844303138494], [74.85773813567899, 13.868993439178588], [74.86307193747567, 13.859643526116901], [74.86531073589475, 13.857176151431496], [74.87215158464974, 13.857786530433167], [74.87633289195436, 13.86057046333307], [74.87872891890436, 13.867493955647577], [74.88437204478934, 13.866838601789386], [74.88437218851978, 13.870978227497279], [74.87751712482374, 13.885683889043928], [74.86905151926551, 13.892855722940224], [74.86990254543642, 13.898857294987895], [74.86323124021658, 13.905825613355905], [74.85866540366469, 13.90167662735221], [74.85681076528532, 13.896036468525145], [74.85444678213982, 13.89653787851173], [74.84177461673602, 13.905014361846037], [74.8399970430282, 13.91196917470208], [74.84531234581826, 13.915332264439117], [74.8509187404896, 13.923594109176063], [74.8609215467553, 13.923604084818422], [74.87106323615714, 13.91993500736326], [74.8829952508523, 13.922809317476046], [74.88349978783499, 13.930374482996097], [74.87519464923426, 13.944967052826145], [74.87827169618765, 13.950295230758956], [74.89700770984655, 13.956702786249208], [74.89815093911474, 13.959735086241967], [74.9066705810323, 13.964782211309183], [74.90658311566634, 13.968271048161794], [74.91559397973742, 13.974474714933722], [74.91459089753495, 13.981244626663038], [74.90442477216072, 13.99061873126122], [74.90962319065758, 13.998906328592208], [74.91426498066505, 13.99743243595721], [74.91791891132088, 14.001157933692056], [74.9147772557356, 14.003433595189964], [74.91780690487967, 14.007410541360997], [74.91502385226423, 14.012986539635776], [74.92083700138475, 14.01312127400235], [74.91789273351519, 14.019893611350765], [74.92497597647991, 14.025603644705136], [74.927042336992, 14.033741319178587], [74.92914097307393, 14.036018024093398], [74.9381866019465, 14.033405201006369], [74.93561341195112, 14.020004878516984], [74.94601448180646, 14.020014913607358], [74.94704333487776, 14.002819833775002], [74.95678500089035, 14.00116408912248], [74.96187697082266, 13.991767283099438], [74.97097708970375, 13.995334155852857], [74.9766394790617, 13.989854678953876], [74.99920660259141, 13.986103512624393], [75.01224594628279, 13.97762676144821], [75.01571522733366, 13.99064362694256], [75.00864712098146, 14.001161446349201], [75.0141392715082, 14.009551476005502], [75.02258362292682, 14.010225116161534], [75.02725002677306, 14.007872556050346], [75.03046100714546, 14.01031425741434], [75.03204607368448, 14.016528740906248], [75.04100110476571, 14.01955548573285], [75.04493389045204, 14.023619668518373], [75.05268800425412, 14.02003846913697], [75.0617119576772, 14.027249322120081], [75.06485973348451, 14.026454881986455], [75.0744535179367, 14.03194789073839], [75.08135320993607, 14.041715313221488], [75.08609827476018, 14.039781947387945], [75.08944791458823, 14.050393577846627], [75.1021912355457, 14.058177264371771], [75.10518509401221, 14.072923657041716], [75.09611175390975, 14.067282640040695], [75.09431969846128, 14.070418725738982], [75.0878220250094, 14.084820329302573], [75.09055862124993, 14.090447006678351], [75.0901786132235, 14.099338947114546], [75.09295025903143, 14.096322323862829], [75.0998906806458, 14.097055411070953], [75.10439543086004, 14.100612472921119], [75.10446103213026, 14.092071243414805], [75.10694753470072, 14.090534960503572], [75.11004499946225, 14.090584919223145], [75.11488302554518, 14.095800371117], [75.12799547952426, 14.091475969429485], [75.12820841348427, 14.085045165200786], [75.13685212621728, 14.081063694936217], [75.13164831243883, 14.079308993270143], [75.14078173635905, 14.06249874101677], [75.15008267002862, 14.066872700985563], [75.15744297318994, 14.062506435424845], [75.16491133110348, 14.063837985875157], [75.16425648621082, 14.05636844806884], [75.15605722574443, 14.050544321231396], [75.15765215398869, 14.047697012011982], [75.15534371457552, 14.045613959283736], [75.14255349617035, 14.044227663797729], [75.14039610038738, 14.040115343293463], [75.14330273603304, 14.036034354160396], [75.14698267291637, 14.035265847990619], [75.14890757392402, 14.028129902760256], [75.1541746551496, 14.024920729472207], [75.159298473952, 14.024052508023813], [75.15937071107726, 14.029062719001825], [75.17100339005174, 14.042986065516924], [75.17389621769318, 14.041299906926834], [75.17732262125722, 14.045565395527914], [75.18992262229929, 14.044360352786684], [75.19662134949152, 14.030674541998067], [75.19088232306007, 14.025688695976662], [75.19509443898566, 14.01709027802077], [75.20367227376728, 14.02654119317575], [75.209548471146, 14.027606533290898], [75.21691012537347, 14.032733262110284], [75.21684694775789, 14.036936138427421], [75.23909761098268, 14.054755104834188], [75.24700561607442, 14.057123908939337], [75.24738012730961, 14.047375915479352], [75.25105774384453, 14.043688349281945], [75.25783657291231, 14.048997354161374], [75.27108152210758, 14.046775705095552], [75.27492665737499, 14.050559876424654], [75.27793771588425, 14.045635280378843], [75.28231028978423, 14.050513225656166], [75.28319954825365, 14.060790177791553], [75.29542517280782, 14.075617558948414], [75.28569502499381, 14.083780168068294], [75.27920619455762, 14.078313833978736], [75.26860102836807, 14.084871084777342], [75.2653504637327, 14.095363098398371], [75.2717650403258, 14.101331276208793], [75.27659012168554, 14.100456653555893], [75.29384134324894, 14.128576905169632], [75.29403426454103, 14.133046414404387], [75.29093304661828, 14.141369549129932], [75.27844527300296, 14.158293360121817], [75.27494802470235, 14.159498483918567], [75.27176419950271, 14.154024394709616], [75.2756975897552, 14.182166747104391], [75.26843126923725, 14.189782760449287], [75.27088394035579, 14.1947910605124], [75.27322791622326, 14.194552535593264], [75.27285150325459, 14.19725035363689], [75.27546909427953, 14.19621653443903], [75.27534768517225, 14.198530290086468], [75.26810308322293, 14.198265008012076], [75.25622939344423, 14.209642854386669], [75.24917259598315, 14.201347755587115], [75.24407145155683, 14.202582798811232], [75.23473652653522, 14.220130276979035], [75.23879492813928, 14.230074991428083], [75.2491679382184, 14.235959821922012], [75.26030945073487, 14.248156618665062], [75.23294608266433, 14.264668649132012], [75.20952094496907, 14.282695328191918], [75.19568995464539, 14.286441377398448], [75.17455114433255, 14.270869089072939], [75.15324454130106, 14.262222716453412], [75.16040929380144, 14.240781418031167], [75.14653370661544, 14.24396882811683], [75.131179416115, 14.237217930539787], [75.12385476169743, 14.236666564633646], [75.1160061873483, 14.243069843483639], [75.09200281488442, 14.239090593769465], [75.0928186845884, 14.236062918836058], [75.0895387486365, 14.234675058351987], [75.08584397787291, 14.222093222655646], [75.07695379168047, 14.222389674280924], [75.07853209390544, 14.229534718905336], [75.08212668454853, 14.23177242683862], [75.08022582874608, 14.234742117054388], [75.06896230974267, 14.239264847688757], [75.06315178729606, 14.23894845004077], [75.05826422721003, 14.250904090527253], [75.05066536025534, 14.258645715709001], [75.04486402128587, 14.259448157620144], [75.04469008858223, 14.266484264046234], [75.03990688578277, 14.270043616123587], [75.04066528666473, 14.274070370565436], [75.01431342879064, 14.292673269032953], [75.00962303184149, 14.302997127505543], [75.01127520702384, 14.307408507953456], [75.00959154589079, 14.31014172140649], [75.00585146769754, 14.3101443771261], [75.0071855332681, 14.311545977293594], [75.00141144918435, 14.318940662762605], [75.00212660606687, 14.324806764268278], [74.99812230999235, 14.325311021537654], [74.99497107028132, 14.330400615968538], [74.99291990746723, 14.329535758172678], [74.99355269422811, 14.331552804076198], [74.991103682846, 14.331647702814111], [74.98691414248181, 14.338741559150172], [74.98362717361957, 14.338363695745409], [74.98185249697855, 14.341488665960458], [74.98370253688199, 14.34274652307834], [74.98084124729354, 14.342426413713829], [74.98090405839653, 14.339534223397225], [74.97940861497675, 14.34277513296981]]]}}, {"type": "Feature", "properties": {"type": "taluk", "name": "Sorab Taluk"}, "geometry": {"type": "Polygon", "coordinates": [[[75.07272752189925, 14.655234613099916], [75.05088600265881, 14.649534517219202], [75.04899025018547, 14.64208213016385], [75.0401317053523, 14.637541897133628], [75.02353032955698, 14.606638974078034], [75.02678876253592, 14.584452294696385], [75.02366772508307, 14.580614301581182], [75.02442090675326, 14.57737454162071], [75.02083565679247, 14.57420961890421], [75.02302643397141, 14.562655599175523], [75.03356475921562, 14.558800902182819], [75.03971598570006, 14.549223042502621], [75.044579312833, 14.545817562745702], [75.05478019402555, 14.548898423523786], [75.06133719671035, 14.543617716709793], [75.05465796565476, 14.539598310029707], [75.0523867066129, 14.533591859102412], [75.0369031332717, 14.529437862501101], [75.04063579677059, 14.521937812188682], [75.04067658118281, 14.500216937382723], [75.01860883201783, 14.4967732026487], [75.00649390505949, 14.48748523309814], [75.00881471696908, 14.484169437705198], [75.0055236625689, 14.480557055144295], [74.9956279318918, 14.477827892132927], [74.98944406781649, 14.472764202325035], [74.98453507123281, 14.48636695845744], [74.99114216128288, 14.493432240575041], [74.99064340136579, 14.501143188723063], [74.9822571332168, 14.513294536991632], [74.97182062572185, 14.520798449278423], [74.97257659845762, 14.523893850869163], [74.97971814118597, 14.524240314579309], [74.9768128278604, 14.533171331266352], [74.97684377302528, 14.548712797068893], [74.97010926952856, 14.55100735756368], [74.96263714677565, 14.549502720530619], [74.95428532811952, 14.551234561599705], [74.94866868636572, 14.536451169603293], [74.94336854534104, 14.5326979943182], [74.94106087668239, 14.534558340348989], [74.94179027725205, 14.531222408683831], [74.93576437113967, 14.518732506595008], [74.9296714632835, 14.52339339440651], [74.92684716182686, 14.529062457494934], [74.90096735965142, 14.529375426206956], [74.90211511822531, 14.51521011024659], [74.89819948407272, 14.508299805512449], [74.89467229941529, 14.507426492383642], [74.88928944870575, 14.479358001042174], [74.89345278251817, 14.474009663037528], [74.90305460060397, 14.473249227099059], [74.91833202496046, 14.466482693813143], [74.9209900761058, 14.45919046711053], [74.90881166790126, 14.457708977917399], [74.89894513336925, 14.464143952143596], [74.89066406782152, 14.462205342434759], [74.87461585571354, 14.447604298313138], [74.88081430753078, 14.429214063146214], [74.91717929331315, 14.431534219898897], [74.93361252065694, 14.403967920574232], [74.94704281295658, 14.400877051215431], [74.94896728187459, 14.398606674749884], [74.94984006075013, 14.376029603004472], [74.94073488704892, 14.367694830607364], [74.9392840377965, 14.35851786493215], [74.95031753598488, 14.350686830091478], [74.95512929353232, 14.349890002679027], [74.96133717945663, 14.341110661843327], [74.97440967457526, 14.337553067105446], [74.97553920902699, 14.340223831344275], [74.97328806955251, 14.342697277990645], [74.97993518942997, 14.343212243406503], [74.98090405839653, 14.339534223397225], [74.98084124729354, 14.342426413713829], [74.98370253688199, 14.34274652307834], [74.98185249697855, 14.341488665960458], [74.98362717361957, 14.338363695745409], [74.98691414248181, 14.338741559150172], [74.991103682846, 14.331647702814111], [74.99355269422811, 14.331552804076198], [74.99291990746723, 14.329535758172678], [74.99497107028132, 14.330400615968538], [74.99812230999235, 14.325311021537654], [75.00212660606687, 14.324806764268278], [75.00141144918435, 14.318940662762605], [75.0071855332681, 14.311545977293594], [75.00585146769754, 14.3101443771261], [75.00959154589079, 14.31014172140649], [75.01127520702384, 14.307408507953456], [75.00962303184149, 14.302997127505543], [75.01431342879064, 14.292673269032953], [75.04066528666473, 14.274070370565436], [75.03990688578277, 14.270043616123587], [75.04469008858223, 14.266484264046234], [75.04486402128587, 14.259448157620144], [75.05066536025534, 14.258645715709001], [75.05826422721003, 14.250904090527253], [75.06315178729606, 14.23894845004077], [75.06896230974267, 14.239264847688757], [75.0799849841302, 14.235016541703962], [75.08212668454853, 14.23177242683862], [75.07853209390544, 14.229534718905336], [75.07695379168047, 14.222389674280924], [75.0817998451088, 14.221143422443953], [75.08584397787291, 14.222093222655646], [75.0895387486365, 14.234675058351987], [75.0928186845884, 14.236062918836058], [75.09200281488442, 14.239090593769465], [75.1160061873483, 14.243069843483639], [75.12385476169743, 14.236666564633646], [75.131179416115, 14.237217930539787], [75.14653370661544, 14.24396882811683], [75.16040929380144, 14.240781418031167], [75.15324454130106, 14.262222716453412], [75.17455114433255, 14.270869089072939], [75.19568995464539, 14.286441377398448], [75.20952094496907, 14.282695328191918], [75.22599826701688, 14.270361113243158], [75.23175762950977, 14.279762843440789], [75.25120588501804, 14.280731949570495], [75.26653692172904, 14.295241344204628], [75.2715876365319, 14.306261169701918], [75.26548712443687, 14.309742520520366], [75.25693533990015, 14.320877808011234], [75.24477537949832, 14.326362069865466], [75.24292819803406, 14.348424980994192], [75.23561707044806, 14.35518895109095], [75.22147018306315, 14.35580945967131], [75.22546255579888, 14.358672918135644], [75.23163076134048, 14.375196536291373], [75.24101470203728, 14.377271049307662], [75.23534486474732, 14.386492506861646], [75.23168203178703, 14.385716810649512], [75.23007895672146, 14.387656167948746], [75.23095775071616, 14.393272946432829], [75.22507881527247, 14.392692528261371], [75.22523741822576, 14.394929368960812], [75.21800436052614, 14.393413796076914], [75.21720030187153, 14.399998332908734], [75.20513614230315, 14.398457055173667], [75.20109082016963, 14.404970282502392], [75.1915310369509, 14.406482373196136], [75.19223651897782, 14.409021863841161], [75.1851068097567, 14.415282053755968], [75.1902095055735, 14.405859115804907], [75.18924463231335, 14.38783743916373], [75.18167195394417, 14.379777190495167], [75.17053295311723, 14.38458320151207], [75.16638876509846, 14.38674855926928], [75.16667129783173, 14.411368238350523], [75.16576288728047, 14.413212121486575], [75.15963333355056, 14.413213014149182], [75.1529527927513, 14.41955403274358], [75.15185512423764, 14.430155812591234], [75.14976863427668, 14.43140323718155], [75.15886636723235, 14.43171404783903], [75.15981616496539, 14.42673845444093], [75.1716952158897, 14.42377215512346], [75.18275899179474, 14.443567765531357], [75.18878409391495, 14.44848300196137], [75.19463167815526, 14.448413572326047], [75.19533647925918, 14.463163521896153], [75.20611519008017, 14.465605012933679], [75.20638646692292, 14.47205806706221], [75.21528910556184, 14.47890123152612], [75.22263129868699, 14.479549107027001], [75.23216062901757, 14.485998281918913], [75.24405823194911, 14.487737034546852], [75.24509058665342, 14.492662228516714], [75.25176233564102, 14.497763611291298], [75.24692048273494, 14.501033310264816], [75.24858918422356, 14.50366232317442], [75.24478869612409, 14.509326480707655], [75.24499069399381, 14.51409850311558], [75.2616922382315, 14.517252693534184], [75.26743142096983, 14.515117968170138], [75.26780562677783, 14.527789393201859], [75.27829609876686, 14.534165899646307], [75.28456541777855, 14.529608823071422], [75.28724565820968, 14.53241173668228], [75.29012680056593, 14.531603862282408], [75.29722598054214, 14.540504363974541], [75.2931377243279, 14.543526070801015], [75.29383196932893, 14.548045366054557], [75.29160495590807, 14.548288510424229], [75.28562450095578, 14.56053267810646], [75.28180144987131, 14.560354859664043], [75.27438028854446, 14.565480704931497], [75.2744570953996, 14.569999716591875], [75.26774551780724, 14.574926839940074], [75.26547416623887, 14.579783652677673], [75.24916921023284, 14.580737743713321], [75.24355863659879, 14.57798849956693], [75.24467659356313, 14.568742144254626], [75.24211042210509, 14.568092602444215], [75.24350283954155, 14.560183812472511], [75.24046576402505, 14.554929693252639], [75.22846156969685, 14.561175834256249], [75.22515640545849, 14.567711615308689], [75.23059065058203, 14.579734374033956], [75.22740944037817, 14.58381183197134], [75.2215911672673, 14.584907798558655], [75.21919490675532, 14.580240633719328], [75.20755463522009, 14.572115226014338], [75.19736255482235, 14.57740113387396], [75.19776331752507, 14.582737921219145], [75.18413153220892, 14.585873212592944], [75.18173553759829, 14.597763168937826], [75.18742052407718, 14.599492577460728], [75.19867257698431, 14.59629907726583], [75.20514173880736, 14.597490027697994], [75.20573994851462, 14.609505836852582], [75.21059933923, 14.623323153668197], [75.2098075066464, 14.627842311653911], [75.20740324843345, 14.627219516639178], [75.20816203738764, 14.63347348426488], [75.20520578150061, 14.634138750184144], [75.20752239737948, 14.635823540574583], [75.20539278738657, 14.637762905131906], [75.20075157050422, 14.637981286313149], [75.20243286098325, 14.627772457692352], [75.19653281692702, 14.623625880423669], [75.18781211408259, 14.622566299315805], [75.1819604326263, 14.62466895967588], [75.17195650256816, 14.634368827074264], [75.16541222990931, 14.633348621953715], [75.16354115775009, 14.628933843192206], [75.16479275797758, 14.620831198971784], [75.16023023531078, 14.617320597510268], [75.15279208324863, 14.626187723953828], [75.14410359758358, 14.620386132437183], [75.1425266877473, 14.633807532492188], [75.12422656810533, 14.63119144169398], [75.11455860347192, 14.64159366346622], [75.10301980383451, 14.6451536273881], [75.09942181486471, 14.652745071093877], [75.07272752189925, 14.655234613099916]]]}}, {"type": "Feature", "properties": {"type": "taluk", "name": "Shikarpur Taluk"}, "geometry": {"type": "Polygon", "coordinates": [[[75.26246699384156, 14.517126480898746], [75.24499069399381, 14.51409850311558], [75.24478869612409, 14.509326480707655], [75.24858918422356, 14.50366232317442], [75.24692048273494, 14.501033310264816], [75.25176233564102, 14.497763611291298], [75.24509058665342, 14.492662228516714], [75.24405823194911, 14.487737034546852], [75.23216062901757, 14.485998281918913], [75.22263129868699, 14.479549107027001], [75.21528910556184, 14.47890123152612], [75.20638646692292, 14.47205806706221], [75.20611519008017, 14.465605012933679], [75.19533647925918, 14.463163521896153], [75.19463167815526, 14.448413572326047], [75.18878409391495, 14.44848300196137], [75.18275899179474, 14.443567765531357], [75.1716952158897, 14.42377215512346], [75.15981616496539, 14.42673845444093], [75.15886636723235, 14.43171404783903], [75.14979641467681, 14.431177251794377], [75.15185512423764, 14.430155812591234], [75.1529527927513, 14.41955403274358], [75.15963333355056, 14.413213014149182], [75.16576288728047, 14.413212121486575], [75.16667129783173, 14.411368238350523], [75.16707020371679, 14.386341693157904], [75.18167195394417, 14.379777190495167], [75.18924463231335, 14.38783743916373], [75.1902095055735, 14.405859115804907], [75.1851068097567, 14.415282053755968], [75.19223651897782, 14.409021863841161], [75.1915310369509, 14.406482373196136], [75.20109082016963, 14.404970282502392], [75.20513614230315, 14.398457055173667], [75.21720030187153, 14.399998332908734], [75.21800436052614, 14.393413796076914], [75.22523741822576, 14.394929368960812], [75.22507881527247, 14.392692528261371], [75.23095775071616, 14.393272946432829], [75.23007895672146, 14.387656167948746], [75.23168203178703, 14.385716810649512], [75.23534486474732, 14.386492506861646], [75.24101470203728, 14.377271049307662], [75.23163076134048, 14.375196536291373], [75.22546255579888, 14.358672918135644], [75.22147018306315, 14.35580945967131], [75.23774883729597, 14.35402652044107], [75.24343767844579, 14.347548059059488], [75.24477537949832, 14.326362069865466], [75.25693533990015, 14.320877808011234], [75.26548712443687, 14.309742520520366], [75.2715876365319, 14.306261169701918], [75.26653692172904, 14.295241344204628], [75.2604915239716, 14.291004001573155], [75.25877007700274, 14.286312363333666], [75.25078888346991, 14.280609642483642], [75.23175762950977, 14.279762843440789], [75.22599826701688, 14.270361113243158], [75.26062940548626, 14.24772753656348], [75.2491679382184, 14.235959821922012], [75.23879492813928, 14.230074991428083], [75.23473652653522, 14.220130276979035], [75.24407145155683, 14.202582798811232], [75.24917259598315, 14.201347755587115], [75.25622939344423, 14.209642854386669], [75.26810308322293, 14.198265008012076], [75.27534768517225, 14.198530290086468], [75.27546909427953, 14.19621653443903], [75.27285150325459, 14.19725035363689], [75.27322791622326, 14.194552535593264], [75.27088394035579, 14.1947910605124], [75.26843126923725, 14.189782760449287], [75.2756975897552, 14.182166747104391], [75.27176419950271, 14.154024394709616], [75.27494802470235, 14.159498483918567], [75.28148019525773, 14.155013771502961], [75.29314414099397, 14.135775675484469], [75.29451201286363, 14.130655977888196], [75.29187455200294, 14.12508297333415], [75.30751653426131, 14.126583929191428], [75.31508471296924, 14.103479649252941], [75.32733971512816, 14.109298736214809], [75.36409096210969, 14.108838232237142], [75.36730888286593, 14.112060547863816], [75.36666516181144, 14.116209103580141], [75.37362006516649, 14.121754409620051], [75.38190930807824, 14.137770294883751], [75.38421518280127, 14.129224490874758], [75.4013810769891, 14.126240865142034], [75.41592886990891, 14.141730705583734], [75.42061070232018, 14.14105655575575], [75.42430340965353, 14.149538291159734], [75.43345083112253, 14.15293927671158], [75.4398533020189, 14.160520873758463], [75.46117235210696, 14.174699967754906], [75.4842296243035, 14.176268176255078], [75.46174215259335, 14.199708618557363], [75.45295197763812, 14.2047277084055], [75.45612106507723, 14.206828067208958], [75.47256762521646, 14.21068151676495], [75.4762522665769, 14.21495964302673], [75.50731339141103, 14.219165346316032], [75.52088994291361, 14.20254149490042], [75.52679131378156, 14.20284690191208], [75.52893087710781, 14.215017665961037], [75.52670604749143, 14.22846110034729], [75.52921633924723, 14.230021245138516], [75.52701265327767, 14.258356908916555], [75.5299189152242, 14.27743779126181], [75.53567874214608, 14.277485219853126], [75.5341307257226, 14.289559631657651], [75.52443067236894, 14.29197320901775], [75.51764647766394, 14.301428636875489], [75.50272517602878, 14.307865379514604], [75.50497228566087, 14.317605223624934], [75.5016269352883, 14.32457631479385], [75.50100422133671, 14.344369463069942], [75.48980384132133, 14.347373696686539], [75.48868716984619, 14.338729290087882], [75.4811834290902, 14.339613815779677], [75.48055067826195, 14.344372697140242], [75.47658269927776, 14.343859146907011], [75.48007638935148, 14.331041632761984], [75.47736350054967, 14.317472054683725], [75.45432872396445, 14.328610952006425], [75.44185495688104, 14.339794796938303], [75.43360537818234, 14.343131949958378], [75.42930081393592, 14.349102533283586], [75.41026433178081, 14.35247249725801], [75.40158316379203, 14.359292813974065], [75.39742575886049, 14.3661621401703], [75.37369609857213, 14.370279706870866], [75.36182339604194, 14.381405021145031], [75.34861016276611, 14.38800155107493], [75.35940599817133, 14.409296446105245], [75.36515985578815, 14.410914715426294], [75.37794268555014, 14.4078285588792], [75.38208835938238, 14.43356889027909], [75.36462042554486, 14.441684654530695], [75.35765580152012, 14.43648728923755], [75.35856054335179, 14.431367397874684], [75.35611709793123, 14.428348470602211], [75.35536553772013, 14.431647228969394], [75.3401649265069, 14.435789188443268], [75.34245787177807, 14.451732685318158], [75.34723822961305, 14.457458936943741], [75.33995093163658, 14.4687780327222], [75.34612151591703, 14.485314037130568], [75.32946892896406, 14.494538967051819], [75.32423360587867, 14.508892768681731], [75.31960321010229, 14.513478333012191], [75.29740343374337, 14.511045068138356], [75.28685037612848, 14.511624133806835], [75.28604205586616, 14.514579240542771], [75.28315678485285, 14.51452385809154], [75.2742753832856, 14.510950032712415], [75.26246699384156, 14.517126480898746]]]}}, {"type": "Feature", "properties": {"type": "taluk", "name": "Hosanagara Taluk"}, "geometry": {"type": "Polygon", "coordinates": [[[75.10636411575464, 14.090656970274043], [75.10439543086004, 14.100612472921119], [75.0998906806458, 14.097055411070953], [75.09295025903143, 14.096322323862829], [75.0901786132235, 14.099338947114546], [75.09055862124993, 14.090447006678351], [75.0878220250094, 14.084820329302573], [75.09611175390975, 14.067282640040695], [75.10518509401221, 14.072923657041716], [75.1021912355457, 14.058177264371771], [75.08944791458823, 14.050393577846627], [75.08609827476018, 14.039781947387945], [75.08135320993607, 14.041715313221488], [75.0744535179367, 14.03194789073839], [75.06485973348451, 14.026454881986455], [75.0617119576772, 14.027249322120081], [75.05268800425412, 14.02003846913697], [75.04493389045204, 14.023619668518373], [75.04100110476571, 14.01955548573285], [75.03204607368448, 14.016528740906248], [75.03046100714546, 14.01031425741434], [75.02725002677306, 14.007872556050346], [75.02258362292682, 14.010225116161534], [75.0141392715082, 14.009551476005502], [75.00864712098146, 14.001161446349201], [75.01571522733366, 13.99064362694256], [75.01385067514678, 13.980013617200512], [75.01136685853902, 13.977282827278021], [74.99920660259141, 13.986103512624393], [74.9766394790617, 13.989854678953876], [74.97241162644896, 13.994931397795359], [74.96906580356254, 13.995606025684912], [74.96187697082266, 13.991767283099438], [74.95678500089035, 14.00116408912248], [74.94704333487776, 14.002819833775002], [74.94601448180646, 14.020014913607358], [74.93561341195112, 14.020004878516984], [74.9381866019465, 14.033405201006369], [74.92914097307393, 14.036018024093398], [74.92497597647991, 14.025603644705136], [74.91789273351519, 14.019893611350765], [74.92083700138475, 14.01312127400235], [74.91502385226423, 14.012986539635776], [74.91780690487967, 14.007410541360997], [74.9147772557356, 14.003433595189964], [74.91791891132088, 14.001157933692056], [74.91426498066505, 13.99743243595721], [74.90962319065758, 13.998906328592208], [74.90901636880169, 13.995132878023703], [74.90456369392449, 13.991296596092083], [74.91459089753495, 13.981244626663038], [74.91559397973742, 13.974474714933722], [74.90658311566634, 13.968271048161794], [74.9066705810323, 13.964782211309183], [74.89815093911474, 13.959735086241967], [74.89700770984655, 13.956702786249208], [74.87827169618765, 13.950295230758956], [74.87519464923426, 13.944967052826145], [74.88349978783499, 13.930374482996097], [74.8829952508523, 13.922809317476046], [74.87106323615714, 13.91993500736326], [74.8609215467553, 13.923604084818422], [74.8509187404896, 13.923594109176063], [74.84531234581826, 13.915332264439117], [74.8399970430282, 13.91196917470208], [74.84177461673602, 13.905014361846037], [74.85593644130748, 13.895946003826463], [74.8616259777533, 13.904862910115646], [74.86553977844443, 13.905437095508645], [74.86518830809793, 13.902766211891258], [74.86990254543642, 13.898857294987895], [74.86905151926551, 13.892855722940224], [74.87751712482374, 13.885683889043928], [74.88418257482456, 13.872035734357565], [74.88437204478934, 13.866838601789386], [74.90695296913681, 13.860288662014478], [74.91142961376075, 13.855420878988904], [74.91647027911056, 13.823206931899453], [74.92366875077343, 13.812721041771905], [74.92440530103443, 13.796325018107602], [74.93145143279817, 13.791908286125073], [74.93342948891781, 13.787659742479192], [74.92939162729272, 13.782576427523992], [74.9314990650678, 13.778147098787121], [74.92801532293748, 13.768847152735278], [74.93534906561078, 13.771778588134346], [74.93777443063962, 13.763937075691022], [74.94674286727984, 13.760152130672045], [74.9481196737933, 13.756965656473717], [74.96321288243112, 13.751442911662693], [74.97162038675344, 13.751183344933056], [74.97675676400351, 13.74619940723114], [74.99891130928955, 13.738104566607376], [74.99347551367381, 13.721232166351989], [74.98869521512763, 13.72024010156485], [74.99115413852059, 13.710093148579457], [75.00079678413772, 13.710664179881821], [75.01125889182163, 13.7075555829807], [75.01298566130856, 13.70208805231838], [75.02133524405795, 13.698146474916541], [75.02077781427133, 13.693983958898343], [75.01100344059925, 13.691091668564148], [75.01313048769865, 13.689212642626622], [75.01208265502203, 13.676793111298503], [75.02846497933022, 13.670206613516495], [75.02902063224923, 13.667630835982724], [75.02435122892824, 13.660538123128754], [75.01574463368448, 13.663611991742348], [75.01275265539184, 13.657821374372608], [75.01498183914245, 13.654279266924581], [75.01341628221472, 13.652009849407428], [75.01498648702572, 13.644363894570116], [75.01782101580184, 13.640505680792733], [75.01545309983204, 13.634724403979673], [75.0233812900682, 13.627248416906193], [75.0282239397799, 13.627173594999693], [75.03944940974117, 13.610393100070741], [75.05000336567133, 13.608046613483632], [75.06033364019744, 13.62850411168508], [75.07237418305698, 13.61405890124108], [75.07186197715669, 13.611130236692766], [75.07785973994955, 13.609450367149664], [75.08587021137414, 13.617880433875628], [75.07961758845036, 13.622385015310805], [75.09651964743924, 13.627069819113403], [75.10355641336781, 13.63510596807002], [75.10962839586776, 13.634238821222063], [75.11595875001308, 13.642749163902515], [75.12660117472736, 13.643124546632725], [75.13623639037881, 13.647187347516653], [75.13798810158958, 13.656424008934836], [75.13558059866183, 13.65829582437297], [75.13464734430305, 13.665382115669075], [75.13788770677174, 13.6795184926987], [75.14935410758711, 13.675811976396423], [75.15290889387997, 13.681374938349038], [75.15855721202733, 13.683792091600186], [75.16135459816142, 13.691682489381195], [75.16311087730541, 13.691035938266236], [75.14858496824422, 13.703840783706834], [75.11145275832712, 13.721854846086858], [75.11508261143841, 13.726325419854955], [75.09181108475838, 13.753705336231183], [75.08834165907878, 13.765495609263665], [75.10324719617901, 13.773261686776754], [75.10886885232871, 13.783087116380058], [75.1173676739929, 13.77897511245771], [75.11844939381703, 13.784949686804662], [75.1252141570641, 13.79471150101836], [75.1351697110475, 13.79247890242987], [75.14354880794556, 13.796911915614627], [75.1429711984044, 13.80204581721569], [75.1476647187958, 13.801494209024117], [75.13624339544138, 13.814234636931308], [75.14165966976768, 13.828406743701365], [75.15066895100722, 13.83160577927815], [75.145124581413, 13.840653724230828], [75.15043910177042, 13.84444045245168], [75.15488962069098, 13.854404985822937], [75.1598142551471, 13.845225767702166], [75.17134406444515, 13.842652615238833], [75.17856429599912, 13.844888309952362], [75.18744226330708, 13.83652120864197], [75.17920620694835, 13.820086450167315], [75.1915249005592, 13.832407625387932], [75.19885531587269, 13.832527652293608], [75.2107110357524, 13.838859959822075], [75.20868731736857, 13.844505227734935], [75.2164731902092, 13.849265834997773], [75.22271969380928, 13.84427430352777], [75.22218801063701, 13.85605616493665], [75.22688323243757, 13.857364850675848], [75.22172818280599, 13.86267701390343], [75.2249677044516, 13.866607515762318], [75.22441003661142, 13.871488460823718], [75.22001247607182, 13.874929314308293], [75.22168379075963, 13.88979697768276], [75.21778871185735, 13.889780326800183], [75.21513194530286, 13.898069520780995], [75.21633125100442, 13.901056341913957], [75.22268776409082, 13.90144262432019], [75.23840820610442, 13.892890198022878], [75.23469709768075, 13.880775779984218], [75.26291106432416, 13.876532403860502], [75.2636262463595, 13.880346984810688], [75.26101487886285, 13.885090942766801], [75.26424987299943, 13.89175829572714], [75.27457717500025, 13.886922833975666], [75.29849182445676, 13.890917860825343], [75.30944317171243, 13.885439352760173], [75.32031750550046, 13.890200919495205], [75.31917664778456, 13.883055749921215], [75.32227645714896, 13.880823977324582], [75.3248546417773, 13.873521486832855], [75.32874006648522, 13.874146014647698], [75.33468463823348, 13.870626583759016], [75.3332012555947, 13.862695036007032], [75.34024233164001, 13.855587478708577], [75.35493253717677, 13.8527286908105], [75.37350743529447, 13.855066278550101], [75.37429357705074, 13.869116624342304], [75.37130529352889, 13.879208016645395], [75.36904233492022, 13.910517163770688], [75.37323822817014, 13.927166061767378], [75.37190078313746, 13.944998899388807], [75.36915670393063, 13.954082377391291], [75.35111938552672, 13.95601979539373], [75.36300599397752, 13.973315800791724], [75.35243001135659, 13.990768039062152], [75.34838272550584, 14.002509984579916], [75.35122104427418, 14.002213865645784], [75.35778217292105, 14.02103933156792], [75.3413602616549, 14.019076046814511], [75.31568999690937, 14.037766590475167], [75.31342602500109, 14.056263002199644], [75.29542517280782, 14.075617558948414], [75.28319954825365, 14.060790177791553], [75.2825182785186, 14.051109878621462], [75.27793771588425, 14.045635280378843], [75.27492665737499, 14.050559876424654], [75.27108152210758, 14.046775705095552], [75.25783657291231, 14.048997354161374], [75.25105774384453, 14.043688349281945], [75.24738012730961, 14.047375915479352], [75.24700561607442, 14.057123908939337], [75.23846323779703, 14.054335072271128], [75.21684694775789, 14.036936138427421], [75.21691012537347, 14.032733262110284], [75.209548471146, 14.027606533290898], [75.20367227376728, 14.02654119317575], [75.19509443898566, 14.01709027802077], [75.19088232306007, 14.025688695976662], [75.19662134949152, 14.030674541998067], [75.18912875413326, 14.044733952139442], [75.17732262125722, 14.045565395527914], [75.17389621769318, 14.041299906926834], [75.17100339005174, 14.042986065516924], [75.15937071107726, 14.029062719001825], [75.159298473952, 14.024052508023813], [75.15311014974131, 14.025219125201701], [75.14890757392402, 14.028129902760256], [75.14698267291637, 14.035265847990619], [75.14330273603304, 14.036034354160396], [75.14039610038738, 14.040115343293463], [75.14255349617035, 14.044227663797729], [75.15534371457552, 14.045613959283736], [75.15765215398869, 14.047697012011982], [75.15605722574443, 14.050544321231396], [75.16425648621082, 14.05636844806884], [75.16491133110348, 14.063837985875157], [75.15744297318994, 14.062506435424845], [75.15008267002862, 14.066872700985563], [75.14078173635905, 14.06249874101677], [75.13164831243883, 14.079308993270143], [75.13685212621728, 14.081063694936217], [75.12820841348427, 14.085045165200786], [75.12799547952426, 14.091475969429485], [75.11488302554518, 14.095800371117], [75.11004499946225, 14.090584919223145], [75.10636411575464, 14.090656970274043]]]}}, {"type": "Feature", "properties": {"type": "taluk", "name": "Tirthahalli Taluk"}, "geometry": {"type": "Polygon", "coordinates": [[[75.39206391974547, 13.920269441015744], [75.37318276708281, 13.926619262933505], [75.36902383321865, 13.911583662373552], [75.37130529352889, 13.879208016645395], [75.37429357705074, 13.869116624342304], [75.37350743529447, 13.855066278550101], [75.35493253717677, 13.8527286908105], [75.34024233164001, 13.855587478708577], [75.3332012555947, 13.862695036007032], [75.33468463823348, 13.870626583759016], [75.32874006648522, 13.874146014647698], [75.3248546417773, 13.873521486832855], [75.32227645714896, 13.880823977324582], [75.31917664778456, 13.883055749921215], [75.32031750550046, 13.890200919495205], [75.30944317171243, 13.885439352760173], [75.29849182445676, 13.890917860825343], [75.27457717500025, 13.886922833975666], [75.26424987299943, 13.89175829572714], [75.26101487886285, 13.885090942766801], [75.2636262463595, 13.880346984810688], [75.26291106432416, 13.876532403860502], [75.23469709768075, 13.880775779984218], [75.23840820610442, 13.892890198022878], [75.22268776409082, 13.90144262432019], [75.21633125100442, 13.901056341913957], [75.21513194530286, 13.898069520780995], [75.21778871185735, 13.889780326800183], [75.22168379075963, 13.88979697768276], [75.22001247607182, 13.874929314308293], [75.22441003661142, 13.871488460823718], [75.2249677044516, 13.866607515762318], [75.22172818280599, 13.86267701390343], [75.22688323243757, 13.857364850675848], [75.22218801063701, 13.85605616493665], [75.22396422609211, 13.845222803042175], [75.22191941885862, 13.843858824287594], [75.2164731902092, 13.849265834997773], [75.21242068424831, 13.846998626748213], [75.20868731736857, 13.844505227734935], [75.2107110357524, 13.838859959822075], [75.19885531587269, 13.832527652293608], [75.1915249005592, 13.832407625387932], [75.17920620694835, 13.820086450167315], [75.18744226330708, 13.83652120864197], [75.17856429599912, 13.844888309952362], [75.17134406444515, 13.842652615238833], [75.1598142551471, 13.845225767702166], [75.15488962069098, 13.854404985822937], [75.15043910177042, 13.84444045245168], [75.145124581413, 13.840653724230828], [75.15066895100722, 13.83160577927815], [75.14165966976768, 13.828406743701365], [75.13624339544138, 13.814234636931308], [75.1476647187958, 13.801494209024117], [75.1429711984044, 13.80204581721569], [75.14354880794556, 13.796911915614627], [75.1351697110475, 13.79247890242987], [75.1252141570641, 13.79471150101836], [75.11844939381703, 13.784949686804662], [75.1173676739929, 13.77897511245771], [75.10886885232871, 13.783087116380058], [75.10324719617901, 13.773261686776754], [75.08834165907878, 13.765495609263665], [75.09181108475838, 13.753705336231183], [75.11508261143841, 13.726325419854955], [75.11145275832712, 13.721854846086858], [75.14858496824422, 13.703840783706834], [75.16311087730541, 13.691035938266236], [75.16135459816142, 13.691682489381195], [75.15855721202733, 13.683792091600186], [75.15290889387997, 13.681374938349038], [75.14935410758711, 13.675811976396423], [75.13788770677174, 13.6795184926987], [75.13464734430305, 13.665382115669075], [75.13558059866183, 13.65829582437297], [75.13798810158958, 13.656424008934836], [75.13623639037881, 13.647187347516653], [75.12660117472736, 13.643124546632725], [75.11595875001308, 13.642749163902515], [75.10962839586776, 13.634238821222063], [75.10355641336781, 13.63510596807002], [75.09651964743924, 13.627069819113403], [75.07961758845036, 13.622385015310805], [75.08587021137414, 13.617880433875628], [75.07785973994955, 13.609450367149664], [75.07186197715669, 13.611130236692766], [75.07237418305698, 13.61405890124108], [75.06033364019744, 13.62850411168508], [75.05198937367787, 13.610605218716701], [75.0557966871769, 13.610515923593024], [75.06101043991563, 13.603779089749782], [75.05922163547014, 13.589926821258741], [75.05093525818413, 13.5833668059231], [75.04518734202462, 13.585353453844139], [75.03782040480493, 13.580013524523041], [75.03368353176755, 13.573427299310561], [75.03501642054509, 13.567168519453922], [75.04219272717663, 13.561535486643793], [75.0425734313974, 13.556107879459], [75.04547415612853, 13.55694946394155], [75.04958176924049, 13.554094570423985], [75.04904205782455, 13.53737733643351], [75.06267989778574, 13.528731228295436], [75.05957855859042, 13.519497329295746], [75.06170359705685, 13.517938726435611], [75.06419151627053, 13.523945611926138], [75.06828850860089, 13.52350374703312], [75.07686293158108, 13.514322319251448], [75.0795851871164, 13.504669494511358], [75.07752698151046, 13.49668311786179], [75.07989697348688, 13.492512208271942], [75.08763216787075, 13.494475007991905], [75.09681423556363, 13.486495127524908], [75.10230028832625, 13.488994984703321], [75.11313107268762, 13.46661139577536], [75.11124741333465, 13.460704430898495], [75.1158005405219, 13.456854189101728], [75.12669330414629, 13.462187399500184], [75.14075856611295, 13.461378142303467], [75.13627996944987, 13.472500554224734], [75.14666128445377, 13.478085971746271], [75.15161737611453, 13.487499419050149], [75.15960747734175, 13.493369264748024], [75.16975642692773, 13.507992769134262], [75.17618538914182, 13.49913757577478], [75.18143142194198, 13.505536548795531], [75.1884246141894, 13.50880705158795], [75.20273751832367, 13.509033633771287], [75.20576938361154, 13.51538248195792], [75.2110906467235, 13.517039435190126], [75.20878668810695, 13.519213939934343], [75.20412143500259, 13.518212129663825], [75.20881625076464, 13.5247094566907], [75.21971631409907, 13.523643737805738], [75.22605974861327, 13.527997972144531], [75.22076863835211, 13.533287662048137], [75.22439616662344, 13.548606917844069], [75.2204747841513, 13.549530367074897], [75.2183276992312, 13.552030281812929], [75.21982099747406, 13.555252062574386], [75.21596021804596, 13.557901810860919], [75.22205856340456, 13.559639553499393], [75.22647385938279, 13.568373688146032], [75.21875730773601, 13.575901283866141], [75.21176374538273, 13.578190584578865], [75.21068982652857, 13.58535861871199], [75.22379189149137, 13.596073809457222], [75.22129941871754, 13.602099000398166], [75.22574114852132, 13.605983973928971], [75.2354960673793, 13.598491447571515], [75.2447906831975, 13.60515783583354], [75.24917798856981, 13.596039007765023], [75.25496561565477, 13.594818441132807], [75.25649588496147, 13.583760362225055], [75.26456554638015, 13.586670109056483], [75.27147102891985, 13.569043260049863], [75.27888747139652, 13.564526992344298], [75.27980050647487, 13.568581208352077], [75.28340375957225, 13.568953200025126], [75.28966131245035, 13.574631801393307], [75.29499840567422, 13.584761547889338], [75.3079946293336, 13.584042406780716], [75.31329239431436, 13.589042296065124], [75.32620477371674, 13.592588499991553], [75.32820667920888, 13.585900291791532], [75.34081006689956, 13.585794091325994], [75.34432658675796, 13.580656129771624], [75.35738131320024, 13.595652725926444], [75.36450554718971, 13.598152432492832], [75.36976341080215, 13.597122288148471], [75.36395540453668, 13.604244430842066], [75.36641786190194, 13.609410204888038], [75.36603845664503, 13.621987501078069], [75.37273382773134, 13.62679181031816], [75.3791289396289, 13.620717905886949], [75.37826018700245, 13.615059691675503], [75.38611514837328, 13.613288034503247], [75.38879960549637, 13.613319536043269], [75.38731194777517, 13.616858260912807], [75.38899405122952, 13.61979572215977], [75.38668388525437, 13.62351070790312], [75.39212255817397, 13.623957930421785], [75.39434098998893, 13.630565008733116], [75.4073111625051, 13.62565583767551], [75.40541715994993, 13.630066976069088], [75.41196645598791, 13.639692294480822], [75.40911096232966, 13.642205411478367], [75.4147041966821, 13.652910999765885], [75.40340827993793, 13.680981806474193], [75.39429032680353, 13.693555287492691], [75.39422151495447, 13.700307136158825], [75.38787970908588, 13.698562989966627], [75.3857536752861, 13.702241726902738], [75.38227771436279, 13.702671148740537], [75.38296201411531, 13.710909847198542], [75.40254654944208, 13.703804366750184], [75.41921035275975, 13.706129640987692], [75.42661735484107, 13.71516239929409], [75.45436925954336, 13.723692441034508], [75.45980801690457, 13.730722707629058], [75.46120344549387, 13.74177192806544], [75.48837689264536, 13.759423372039537], [75.48638820586264, 13.767947581384373], [75.49737518659066, 13.770536578451008], [75.49842138523178, 13.781874909581937], [75.50929857476413, 13.784044435882926], [75.50950775017296, 13.791243716930776], [75.50267096719296, 13.795872520265549], [75.49305045696273, 13.795100802496064], [75.48170229150672, 13.834934005805744], [75.47696941232947, 13.841873023579124], [75.46539517595073, 13.835600157409873], [75.46021633803214, 13.838403807038702], [75.45447608270536, 13.836557349363032], [75.45068506464561, 13.826403659338405], [75.44748943468481, 13.826458842756518], [75.42365926459424, 13.854203559044041], [75.42148380009763, 13.845974353176743], [75.40605962785463, 13.850622381448524], [75.40603272241353, 13.857509737220974], [75.40351651076, 13.856642255134142], [75.40135670300049, 13.85930885580568], [75.4051458372931, 13.866674836731095], [75.40017269291332, 13.859900996692495], [75.39682874481088, 13.86247271707396], [75.398296830937, 13.88176522968486], [75.39545340883956, 13.898979145798009], [75.39938126996147, 13.901197814294706], [75.39888181564666, 13.903660831465483], [75.39494936682857, 13.901324711906831], [75.38985629825665, 13.907611258120733], [75.39206391974547, 13.920269441015744]]]}}, {"type": "Feature", "properties": {"type": "taluk", "name": "Shimoga Taluk"}, "geometry": {"type": "Polygon", "coordinates": [[[75.38252979600455, 14.13729117279213], [75.37234673379395, 14.1199964317163], [75.36666516181144, 14.116209103580141], [75.36730888286593, 14.112060547863816], [75.36409096210969, 14.108838232237142], [75.32733971512816, 14.109298736214809], [75.31508471296924, 14.103479649252941], [75.30751653426131, 14.126583929191428], [75.29187455200294, 14.12508297333415], [75.27659012168554, 14.100456653555893], [75.2717650403258, 14.101331276208793], [75.2653504637327, 14.095363098398371], [75.26665117934833, 14.086325329940399], [75.27920619455762, 14.078313833978736], [75.28569502499381, 14.083780168068294], [75.28793635576368, 14.082497544143736], [75.31342602500109, 14.056263002199644], [75.31568999690937, 14.037766590475167], [75.3407214894193, 14.01935611779537], [75.35778217292105, 14.02103933156792], [75.35122104427418, 14.002213865645784], [75.34838272550584, 14.002509984579916], [75.35243001135659, 13.990768039062152], [75.36300599397752, 13.973315800791724], [75.35111938552672, 13.95601979539373], [75.36915670393063, 13.954082377391291], [75.37318276708281, 13.926619262933505], [75.39207314724008, 13.92026037727149], [75.38985629825665, 13.907611258120733], [75.39494936682857, 13.901324711906831], [75.39888181564666, 13.903660831465483], [75.39938126996147, 13.901197814294706], [75.39545340883956, 13.898979145798009], [75.398296830937, 13.88176522968486], [75.39682874481088, 13.86247271707396], [75.40017269291332, 13.859900996692495], [75.40272655296039, 13.865305733647327], [75.4051458372931, 13.866674836731095], [75.40135670300049, 13.85930885580568], [75.40351651076, 13.856642255134142], [75.40603272241353, 13.857509737220974], [75.40605962785463, 13.850622381448524], [75.40878361713841, 13.84880077128216], [75.42148380009763, 13.845974353176743], [75.42365926459424, 13.854203559044041], [75.44748943468481, 13.826458842756518], [75.45068506464561, 13.826403659338405], [75.45447608270536, 13.836557349363032], [75.46021633803214, 13.838403807038702], [75.46539517595073, 13.835600157409873], [75.47696941232947, 13.841873023579124], [75.48170229150672, 13.834934005805744], [75.49305045696273, 13.795100802496064], [75.50267096719296, 13.795872520265549], [75.51024847131185, 13.789495138810215], [75.5078335923173, 13.782516187468808], [75.49733408956472, 13.780546787057203], [75.49661649195959, 13.769759610907174], [75.48730865833029, 13.768611532809865], [75.49832583233332, 13.758117166721387], [75.5069312157498, 13.765726661234194], [75.50700770729625, 13.760769064325048], [75.51047333939042, 13.755297914251118], [75.52098832191197, 13.751818371297544], [75.521666938922, 13.743660691216354], [75.52775723357901, 13.739623010804824], [75.53210148808965, 13.731499061234986], [75.54323444325472, 13.728335189013054], [75.56583666036934, 13.740882976098147], [75.56730372421268, 13.753140330060441], [75.5714317766923, 13.75542356951235], [75.59906936089317, 13.760960036040965], [75.60760422835646, 13.760649101713609], [75.60592342745926, 13.789621980506713], [75.59100098676033, 13.795111082021403], [75.60613103710459, 13.795777231461775], [75.60643986891613, 13.807093577347759], [75.60920935337751, 13.81315859260063], [75.60550918373906, 13.820660290475002], [75.61002577913862, 13.843623009765427], [75.6171067906882, 13.843894611491338], [75.62866027418721, 13.84959363899973], [75.63608387084679, 13.8554956838617], [75.63792056178518, 13.862970422367653], [75.64228262988786, 13.867457865961123], [75.65083995702987, 13.868053727499175], [75.65839526557474, 13.881289777456347], [75.65783590351192, 13.884186700567206], [75.66148142054679, 13.886201834792011], [75.65592692873595, 13.896018240598865], [75.66304692896549, 13.89881473112056], [75.67145228541594, 13.896924381229427], [75.67475832461339, 13.911041859682284], [75.6735190501699, 13.914336648693014], [75.68922598062332, 13.914608875632862], [75.69397197520374, 13.911986523304158], [75.70428093001321, 13.915928799815235], [75.71190549866645, 13.916079979228797], [75.71341661050144, 13.923852556734483], [75.7091249775035, 13.92905561783406], [75.71066575081083, 13.942129188049844], [75.69157189954676, 13.964929767060118], [75.68998685546559, 13.973001463390894], [75.68416642909298, 13.977269007067115], [75.68268873817985, 13.990225832231731], [75.6756786225708, 13.996251373017506], [75.67501991941401, 14.011125354588568], [75.68261108062018, 14.032373053093341], [75.68876399683563, 14.036827440790022], [75.7003040936403, 14.051909333781792], [75.70728608209946, 14.05528295587725], [75.71762708161174, 14.053299988704996], [75.73281218430988, 14.055811091528417], [75.73636901606663, 14.059018135487928], [75.73600622694758, 14.06515984488581], [75.72656246024951, 14.076597346473285], [75.69701421243987, 14.071866930277464], [75.67301753242486, 14.064989844820763], [75.64364883538268, 14.074004724442162], [75.64243631187006, 14.079509108018819], [75.6343156647708, 14.079884500668747], [75.63073669313553, 14.07353970012895], [75.61756061777311, 14.076630532332576], [75.61113100338214, 14.061436648803138], [75.60425211187318, 14.056758766852644], [75.60024260107845, 14.06127747222675], [75.59132598645033, 14.063960666057742], [75.58524858710922, 14.057903972489536], [75.56434873135693, 14.06931021420262], [75.55367919369074, 14.07880188658933], [75.54819692912366, 14.077001589574563], [75.54018296864251, 14.080067224970962], [75.53879635881434, 14.086158473600623], [75.53395184330176, 14.090214936565935], [75.53130975971061, 14.097548338398397], [75.5290607438535, 14.094641694729342], [75.52363440659937, 14.094494767843454], [75.51003717138735, 14.101099960339576], [75.49280554208032, 14.09953828892952], [75.49053939804564, 14.104790591417983], [75.47990156462079, 14.100276216051197], [75.47077208250803, 14.103239920270402], [75.4647940997194, 14.102383437220835], [75.44850273791856, 14.095420223985826], [75.43292987203813, 14.106500648974947], [75.39882408631323, 14.116899946625578], [75.4013810769891, 14.126240865142034], [75.38421518280127, 14.129224490874758], [75.38252979600455, 14.13729117279213]]]}}, {"type": "Feature", "properties": {"type": "taluk", "name": "Bhadravati Taluk"}, "geometry": {"type": "Polygon", "coordinates": [[[75.76818368818525, 14.109443673292905], [75.7553949160677, 14.109828673230396], [75.75314902455113, 14.101787981041626], [75.73881539718157, 14.101121953217802], [75.73822072414158, 14.087438308846641], [75.72116244453153, 14.083427879487848], [75.73600622694758, 14.06515984488581], [75.73558136963226, 14.057540705185124], [75.7190993071747, 14.053389862639424], [75.70728608209946, 14.05528295587725], [75.70252673585898, 14.053725338874322], [75.68876399683563, 14.036827440790022], [75.68340752515445, 14.033633672802598], [75.67527938790234, 14.012521772314615], [75.6756786225708, 13.996251373017506], [75.68268873817985, 13.990225832231731], [75.68416642909298, 13.977269007067115], [75.68998685546559, 13.973001463390894], [75.69157189954676, 13.964929767060118], [75.71066575081083, 13.942129188049844], [75.7091249775035, 13.92905561783406], [75.71341661050144, 13.923852556734483], [75.71190549866645, 13.916079979228797], [75.70428093001321, 13.915928799815235], [75.69397197520374, 13.911986523304158], [75.68922598062332, 13.914608875632862], [75.6735190501699, 13.914336648693014], [75.67475832461339, 13.911041859682284], [75.67145228541594, 13.896924381229427], [75.66304692896549, 13.89881473112056], [75.65592692873595, 13.896018240598865], [75.66148142054679, 13.886201834792011], [75.65783590351192, 13.884186700567206], [75.65839526557474, 13.881289777456347], [75.65083995702987, 13.868053727499175], [75.64228262988786, 13.867457865961123], [75.63792056178518, 13.862970422367653], [75.63608387084679, 13.8554956838617], [75.62866027418721, 13.84959363899973], [75.6171067906882, 13.843894611491338], [75.61002577913862, 13.843623009765427], [75.60550918373906, 13.820660290475002], [75.60920935337751, 13.81315859260063], [75.60643986891613, 13.807093577347759], [75.60613103710459, 13.795777231461775], [75.59100098676033, 13.795111082021403], [75.60592342745926, 13.789621980506713], [75.60760422835646, 13.760649101713609], [75.61087299285948, 13.760988285088914], [75.60902468760284, 13.746006032586456], [75.6279101225345, 13.733262428582615], [75.61731485937264, 13.72299434376807], [75.62215958509097, 13.713842966661366], [75.62319052764366, 13.7042620564525], [75.62691610702821, 13.702309754194138], [75.63153382038945, 13.703362782664724], [75.63490338844376, 13.701288364399474], [75.64190630495409, 13.70381436140618], [75.64863229421854, 13.710136372648254], [75.65117557839982, 13.718740920367608], [75.66025894370084, 13.718396463263888], [75.6738454197907, 13.721697968523356], [75.67461415848499, 13.728381839244424], [75.6681519002149, 13.730877628800704], [75.66581853434924, 13.737548461899753], [75.65588021813781, 13.746177064676091], [75.66313002043434, 13.750785827494335], [75.66417143374996, 13.757999095293092], [75.66919811322907, 13.764108451538775], [75.6743944898553, 13.761960856127878], [75.67649587208706, 13.7511937537848], [75.68651876019094, 13.749922820755742], [75.68865568875846, 13.753954170335122], [75.68198148467519, 13.761344683845444], [75.68717954833748, 13.766771213761023], [75.70964531495373, 13.766538909025932], [75.71288324658126, 13.770577970475067], [75.71811295250114, 13.771407745476013], [75.73177005952856, 13.76909305832866], [75.74911229659992, 13.78098543732161], [75.76458199186827, 13.78153801093048], [75.76688305701126, 13.79002484616791], [75.76070808805386, 13.794259340285882], [75.767074834748, 13.797110069012138], [75.77262062278207, 13.796974696734523], [75.77760696700666, 13.788533402741804], [75.79179574552822, 13.796959276260923], [75.80777570184426, 13.794484106046719], [75.82546492307559, 13.818694570504382], [75.83554183316568, 13.813822118848885], [75.87877689079758, 13.810157101364345], [75.87055122794665, 13.835568673491357], [75.8713735062319, 13.851139540238869], [75.86573798278914, 13.859860547640052], [75.86288134916877, 13.872698247532936], [75.8553357900397, 13.872697692869593], [75.85977752703005, 13.886638309830543], [75.85967005887764, 13.910407830936354], [75.82916484657562, 13.971698872363662], [75.83087860755892, 13.986753164839657], [75.8238834929168, 14.018982649653191], [75.80793597566398, 14.026254402741008], [75.80343229534326, 14.026117476337955], [75.79878266753494, 14.033306019400785], [75.80101500167724, 14.043736989253246], [75.81394256350619, 14.048820339148826], [75.8209795953361, 14.065050453084323], [75.8210687082123, 14.079511796940304], [75.81397191775474, 14.094626588626728], [75.81414014795294, 14.10567599285056], [75.80587269637334, 14.098178525271555], [75.76854191565931, 14.103627822319567], [75.76818368818525, 14.109443673292905]]]}}]}